ONEWEB-0628             
1 55169U 23004AF  23059.58334491 -.00118301  00000+0 -22052-1 0  9998
2 55169  86.6252 264.0508 0017282  59.3870  45.5366 14.65816292  1301
ONEWEB-0628             
1 55169U 23004AF  23059.75001157 -.00045593  00000+0 -84176-2 0  9995
2 55169  86.6251 263.9811 0017226  58.8907 204.9683 14.65779461  7516
ONEWEB-0628             
1 55169U 23004AF  23059.91667824  .00050408  00000+0  91761-2 0  9999
2 55169  86.6252 263.9123 0017323  58.4022   4.3422 14.65725432  1308
ONEWEB-0628             
1 55169U 23004AF  23060.58334491 -.00010528  00000+0 -19378-2 0  9990
2 55169  86.6251 263.6389 0017206  56.6053 281.6079 14.65758974  7640
ONEWEB-0628             
1 55169U 23004AF  23060.91667824  .00051537  00000+0  93817-2 0  9999
2 55169  86.6250 263.5006 0017209  55.2809 240.6994 14.65719392  1300
ONEWEB-0628             
1 55169U 23004AF  23061.83334491  .00010183  00000+0  18609-2 0  9990
2 55169  86.6246 263.1232 0017135  52.4244  37.3639 14.65738135  1305
ONEWEB-0628             
1 55169U 23004AF  23062.58334491 -.00015718  00000+0 -28930-2 0  9992
2 55169  86.6246 262.8153 0017011  50.3520  34.3631 14.65766390  1303
ONEWEB-0628             
1 55169U 23004AF  23062.58334491 -.00015718  00000+0 -28930-2 0  9992
2 55169  86.6246 262.8153 0017011  50.3520  34.3631 14.65766390  7938
ONEWEB-0628             
1 55169U 23004AF  23062.91667824  .00050925  00000+0  92702-2 0  9993
2 55169  86.6245 262.6771 0017014  49.1018 353.3865 14.65725526  1306
